{"type": "FeatureCollection", "features": [ {"type": "Feature", "properties": {"norad_id": 35195, "name": "FENGYUN 1C DEB", "group": "fengyun-1c-debris", "lat": 10.191339951063647, "lon": -81.7456757529833, "alt_km": 766.7570049893875, "timestamp": "2025-12-27T04:40:45.793127+00:00", "meta": {"OBJECT_NAME": "FENGYUN 1C DEB", "OBJECT_ID": "1999-025DPB", "EPOCH": "2025-12-22T00:13:11.050752", "MEAN_MOTION": 14.56075871, "ECCENTRICITY": 0.01032816, "INCLINATION": 98.9839, "RA_OF_ASC_NODE": 91.0439, "ARG_OF_PERICENTER": 40.5649, "MEAN_ANOMALY": 320.3184, "EPHEMERIS_TYPE": 0, "CLASSIFICATION_TYPE": "U", "NORAD_CAT_ID": 35195, "ELEMENT_SET_NO": 999, "REV_AT_EPOCH": 91061, "BSTAR": 0.00065824609, "MEAN_MOTION_DOT": 3.061e-05, "MEAN_MOTION_DDOT": 0}, "tle": {"line1": "1 35195U 99025DPB 25356.00915568  .00003061  00000+0  65825-3 0  9991", "line2": "2 35195  98.9839  91.0439 0103281  40.5649 320.3184 14.56075871910612"}}, "geometry": {"type": "Point", "coordinates": [-81.7456757529833, 10.191339951063647]}}, {"type": "Feature", "properties": {"norad_id": 35196, "name": "FENGYUN 1C DEB", "group": "fengyun-1c-debris", "lat": -26.697373127691765, "lon": -168.46897962578973, "alt_km": 826.6583895668191, "timestamp": "2025-12-27T04:40:45.793137+00:00", "meta": {"OBJECT_NAME": "FENGYUN 1C DEB", "OBJECT_ID": "1999-025DPC", "EPOCH": "2025-12-26T07:28:51.278304", "MEAN_MOTION": 14.19844718, "ECCENTRICITY": 0.0214069, "INCLINATION": 98.5353, "RA_OF_ASC_NODE": 15.0098, "ARG_OF_PERICENTER": 298.8845, "MEAN_ANOMALY": 78.2497, "EPHEMERIS_TYPE": 0, "CLASSIFICATION_TYPE": "U", "NORAD_CAT_ID": 35196, "ELEMENT_SET_NO": 999, "REV_AT_EPOCH": 89327, "BSTAR": 0.00085562, "MEAN_MOTION_DOT": 2.236e-05, "MEAN_MOTION_DDOT": 0}, "tle": {"line1": "1 35196U 99025DPC 25360.31170461  .00002236  00000+0  85562-3 0  9999", "line2": "2 35196  98.5353  15.0098 0214069 298.8845  78.2497 14.19844718893271"}}, "geometry": {"type": "Point", "coordinates": [-168.46897962578973, -26.697373127691765]}}, {"type": "Feature", "properties": {"norad_id": 35200, "name": "FENGYUN 1C DEB", "group": "fengyun-1c-debris", "lat": -30.116261470712573, "lon": 151.67994415421825, "alt_km": 1370.1060203667002, "timestamp": "2025-12-27T04:40:45.793147+00:00", "meta": {"OBJECT_NAME": "FENGYUN 1C DEB", "OBJECT_ID": "1999-025DPG", "EPOCH": "2025-12-24T10:09:57.930624", "MEAN_MOTION": 13.41968581, "ECCENTRICITY": 0.0353099, "INCLINATION": 98.871, "RA_OF_ASC_NODE": 334.4369, "ARG_OF_PERICENTER": 30.8804, "MEAN_ANOMALY": 118.1675, "EPHEMERIS_TYPE": 0, "CLASSIFICATION_TYPE": "U", "NORAD_CAT_ID": 35200, "ELEMENT_SET_NO": 999, "REV_AT_EPOCH": 66060, "BSTAR": 0.00047723172, "MEAN_MOTION_DOT": 3.51e-06, "MEAN_MOTION_DDOT": 0}, "tle": {"line1": "1 35200U 99025DPG 25358.42358716  .00000351  00000+0  47723-3 0  9998", "line2": "2 35200  98.8710 334.4369 0353099  30.8804 118.1675 13.41968581660602"}}, "geometry": {"type": "Point", "coordinates": [151.67994415421825, -30.116261470712573]}}, {"type": "Feature", "properties": {"norad_id": 35201, "name": "FENGYUN 1C DEB", "group": "fengyun-1c-debris", "lat": 46.66341284366421, "lon": -160.86229844994222, "alt_km": 850.1484114515761, "timestamp": "2025-12-27T04:40:45.793157+00:00", "meta": {"OBJECT_NAME": "FENGYUN 1C DEB", "OBJECT_ID": "1999-025DPH", "EPOCH": "2025-12-25T11:56:12.996096", "MEAN_MOTION": 14.11057334, "ECCENTRICITY": 0.0006252, "INCLINATION": 98.7078, "RA_OF_ASC_NODE": 8.1443, "ARG_OF_PERICENTER": 208.5925, "MEAN_ANOMALY": 305.3525, "EPHEMERIS_TYPE": 0, "CLASSIFICATION_TYPE": "U", "NORAD_CAT_ID": 35201, "ELEMENT_SET_NO": 999, "REV_AT_EPOCH": 87199, "BSTAR": 0.00012065, "MEAN_MOTION_DOT": 1.74e-06, "MEAN_MOTION_DDOT": 0}, "tle": {"line1": "1 35201U 99025DPH 25359.49737264  .00000174  00000+0  12065-3 0  9990", "line2": "2 35201  98.7078   8.1443 0006252 208.5925 305.3525 14.11057334871994"}}, "geometry": {"type": "Point", "coordinates": [-160.86229844994222, 46.66341284366421]}}, {"type": "Feature", "properties": {"norad_id": 35202, "name": "FENGYUN 1C DEB", "group": "fengyun-1c-debris", "lat": 72.1486156883865, "lon": 12.491812735831951, "alt_km": 1169.0807102613744, "timestamp": "2025-12-27T04:40:45.793167+00:00", "meta": {"OBJECT_NAME": "FENGYUN 1C DEB", "OBJECT_ID": "1999-025DPJ", "EPOCH": "2025-12-26T13:55:27.850080", "MEAN_MOTION": 13.34754201, "ECCENTRICITY": 0.0374076, "INCLINATION": 100.0897, "RA_OF_ASC_NODE": 45.4467, "ARG_OF_PERICENTER": 334.9096, "MEAN_ANOMALY": 23.4252, "EPHEMERIS_TYPE": 0, "CLASSIFICATION_TYPE": "U", "NORAD_CAT_ID": 35202, "ELEMENT_SET_NO": 999, "REV_AT_EPOCH": 57161, "BSTAR": 0.00061283, "MEAN_MOTION_DOT": 4.11e-06, "MEAN_MOTION_DDOT": 0}, "tle": {"line1": "1 35202U 99025DPJ 25360.58018345  .00000411  00000+0  61283-3 0  9995", "line2": "2 35202 100.0897  45.4467 0374076 334.9096  23.4252 13.34754201571618"}}, "geometry": {"type": "Point", "coordinates": [12.491812735831951, 72.1486156883865]}}, {"type": "Feature", "properties": {"norad_id": 35203, "name": "FENGYUN 1C DEB", "group": "fengyun-1c-debris", "lat": 75.88811392826061, "lon": -87.76010169992763, "alt_km": 869.8034883492783, "timestamp": "2025-12-27T04:40:45.793177+00:00", "meta": {"OBJECT_NAME": "FENGYUN 1C DEB", "OBJECT_ID": "1999-025DPK", "EPOCH": "2025-12-22T17:27:58.469184", "MEAN_MOTION": 13.26459504, "ECCENTRICITY": 0.05116378, "INCLINATION": 102.0716, "RA_OF_ASC_NODE": 325.3726, "ARG_OF_PERICENTER": 137.243, "MEAN_ANOMALY": 226.9688, "EPHEMERIS_TYPE": 0, "CLASSIFICATION_TYPE": "U", "NORAD_CAT_ID": 35203, "ELEMENT_SET_NO": 999, "REV_AT_EPOCH": 59783, "BSTAR": 0.0019832068, "MEAN_MOTION_DOT": 1.733e-05, "MEAN_MOTION_DDOT": 0}, "tle": {"line1": "1 35203U 99025DPK 25356.72776006  .00001733  00000+0  19832-2 0  9992", "line2": "2 35203 102.0716 325.3726 0511637 137.2430 226.9688 13.26459504597835"}}, "geometry": {"type": "Point", "coordinates": [-87.76010169992763, 75.88811392826061]}}, {"type": "Feature", "properties": {"norad_id": 35204, "name": "FENGYUN 1C DEB", "group": "fengyun-1c-debris", "lat": -28.28829250606594, "lon": 5.801272664828647, "alt_km": 726.1717679271887, "timestamp": "2025-12-27T04:40:45.793188+00:00", "meta": {"OBJECT_NAME": "FENGYUN 1C DEB", "OBJECT_ID": "1999-025DPL", "EPOCH": "2025-12-26T11:17:05.564256", "MEAN_MOTION": 14.49000144, "ECCENTRICITY": 0.0039263, "INCLINATION": 99.0066, "RA_OF_ASC_NODE": 189.925, "ARG_OF_PERICENTER": 283.2174, "MEAN_ANOMALY": 107.2318, "EPHEMERIS_TYPE": 0, "CLASSIFICATION_TYPE": "U", "NORAD_CAT_ID": 35204, "ELEMENT_SET_NO": 999, "REV_AT_EPOCH": 91129, "BSTAR": 0.0022882, "MEAN_MOTION_DOT": 8.721e-05, "MEAN_MOTION_DDOT": 0}, "tle": {"line1": "1 35204U 99025DPL 25360.47020329  .00008721  00000+0  22882-2 0  9993", "line2": "2 35204  99.0066 189.9250 0039263 283.2174 107.2318 14.49000144911291"}}, "geometry": {"type": "Point", "coordinates": [5.801272664828647, -28.28829250606594]}}, {"type": "Feature", "properties": {"norad_id": 35207, "name": "FENGYUN 1C DEB", "group": "fengyun-1c-debris", "lat": 69.83515906170904, "lon": -55.285974044176754, "alt_km": 708.9934295042149, "timestamp": "2025-12-27T04:40:45.793198+00:00", "meta": {"OBJECT_NAME": "FENGYUN 1C DEB", "OBJECT_ID": "1999-025DPP", "EPOCH": "2025-12-24T11:50:29.328864", "MEAN_MOTION": 14.55641185, "ECCENTRICITY": 0.00554221, "INCLINATION": 98.6892, "RA_OF_ASC_NODE": 97.2938, "ARG_OF_PERICENTER": 219.5668, "MEAN_ANOMALY": 140.1477, "EPHEMERIS_TYPE": 0, "CLASSIFICATION_TYPE": "U", "NORAD_CAT_ID": 35207, "ELEMENT_SET_NO": 999, "REV_AT_EPOCH": 65075, "BSTAR": 0.002363703, "MEAN_MOTION_DOT": 0.00010498, "MEAN_MOTION_DDOT": 0}, "tle": {"line1": "1 35207U 99025DPP 25358.49339501  .00010498  00000+0  23637-2 0  9993", "line2": "2 35207  98.6892  97.2938 0055422 219.5668 140.1477 14.55641185650751"}}, "geometry": {"type": "Point", "coordinates": [-55.285974044176754, 69.83515906170904]}}, {"type": "Feature", "properties": {"norad_id": 35208, "name": "FENGYUN 1C DEB", "group": "fengyun-1c-debris", "lat": 70.12456899042716, "lon": -5.696548484038093, "alt_km": 834.9982535076151, "timestamp": "2025-12-27T04:40:45.793208+00:00", "meta": {"OBJECT_NAME": "FENGYUN 1C DEB", "OBJECT_ID": "1999-025DPQ", "EPOCH": "2025-12-12T19:29:45.564288", "MEAN_MOTION": 13.99657071, "ECCENTRICITY": 0.01013151, "INCLINATION": 98.903, "RA_OF_ASC_NODE": 6.0094, "ARG_OF_PERICENTER": 156.4473, "MEAN_ANOMALY": 204.1379, "EPHEMERIS_TYPE": 0, "CLASSIFICATION_TYPE": "U", "NORAD_CAT_ID": 35208, "ELEMENT_SET_NO": 999, "REV_AT_EPOCH": 90564, "BSTAR": 0.0013122763, "MEAN_MOTION_DOT": 1.963e-05, "MEAN_MOTION_DDOT": 0}, "tle": {"line1": "1 35208U 99025DPQ 25346.81233292  .00001963  00000+0  13123-2 0  9993", "line2": "2 35208  98.9030   6.0094 0101315 156.4473 204.1379 13.99657071905647"}}, "geometry": {"type": "Point", "coordinates": [-5.696548484038093, 70.12456899042716]}}, {"type": "Feature", "properties": {"norad_id": 35210, "name": "FENGYUN 1C DEB", "group": "fengyun-1c-debris", "lat": -18.60318847000493, "lon": 8.81993224607026, "alt_km": 812.8225458671604, "timestamp": "2025-12-27T04:40:45.793240+00:00", "meta": {"OBJECT_NAME": "FENGYUN 1C DEB", "OBJECT_ID": "1999-025DPS", "EPOCH": "2025-12-21T12:08:09.731616", "MEAN_MOTION": 14.33731534, "ECCENTRICITY": 0.00494304, "INCLINATION": 99.0977, "RA_OF_ASC_NODE": 359.7491, "ARG_OF_PERICENTER": 213.3561, "MEAN_ANOMALY": 298.6151, "EPHEMERIS_TYPE": 0, "CLASSIFICATION_TYPE": "U", "NORAD_CAT_ID": 35210, "ELEMENT_SET_NO": 999, "REV_AT_EPOCH": 90248, "BSTAR": 0.0016885673, "MEAN_MOTION_DOT": 4.708e-05, "MEAN_MOTION_DDOT": 0}, "tle": {"line1": "1 35210U 99025DPS 25355.50566819  .00004708  00000+0  16886-2 0  9995", "line2": "2 35210  99.0977 359.7491 0049430 213.3561 298.6151 14.33731534902482"}}, "geometry": {"type": "Point", "coordinates": [8.81993224607026, -18.60318847000493]}}]}